[{"OBJECT_NAME":"STARLINK-1470","OBJECT_ID":"2020-038AU","EPOCH":"2026-03-09T14:36:51.476832","MEAN_MOTION":15.2807486,"ECCENTRICITY":0.0002444,"INCLINATION":53.048,"RA_OF_ASC_NODE":174.6971,"ARG_OF_PERICENTER":12.8687,"MEAN_ANOMALY":347.2373,"EPHEMERIS_TYPE":0,"CLASSIFICATION_TYPE":"U","NORAD_CAT_ID":45772,"ELEMENT_SET_NO":999,"REV_AT_EPOCH":31706,"BSTAR":0.0019687,"MEAN_MOTION_DOT":0.00054678,"MEAN_MOTION_DDOT":0},{"OBJECT_NAME":"STARLINK-33847","OBJECT_ID":"2025-085X","EPOCH":"2026-03-09T21:53:36.218400","MEAN_MOTION":15.27589031,"ECCENTRICITY":9.377e-5,"INCLINATION":43.0015,"RA_OF_ASC_NODE":29.6836,"ARG_OF_PERICENTER":250.3536,"MEAN_ANOMALY":109.7215,"EPHEMERIS_TYPE":0,"CLASSIFICATION_TYPE":"U","NORAD_CAT_ID":63685,"ELEMENT_SET_NO":999,"REV_AT_EPOCH":4890,"BSTAR":0.001107487,"MEAN_MOTION_DOT":0.00030347,"MEAN_MOTION_DDOT":0}]
