STARLINK-1470           
1 45772U 20038AU  26068.60892913  .00054678  00000+0  19687-2 0  9990
2 45772  53.0480 174.6971 0002444  12.8687 347.2373 15.28074860317065
STARLINK-33847          
1 63685U 25085X   26068.91222475  .00030347  00000+0  11075-2 0  9994
2 63685  43.0015  29.6836 0000938 250.3536 109.7215 15.27589031 48908
